#dP2018  7 25  0  0  0.00000000      96 __u+U ITR00 FIT  IAC
## 2011 259200.00000000   900.00000000 58324 0.0000000000000
+   84   C01C02C03C05C06C07C08C09C10C11C12C13C14E01E02E03E04
+        E05E07E08E09E11E12E14E18E19E24E26E30G01G02G03G05G06
+        G07G08G09G10G11G12G13G14G15G16G17G18G19G20G21G22G23
+        G24G25G26G27G28G29G30G31G32J01R01R02R03R04R05R07R08
+        R09R10R11R13R14R15R16R17R18R19R20R21R22R23R24R26  0
++        13 12 12 12  8  9  9  8  8  8  8  8  8  6  6  6  7
++         7  6  6  7  7  7  7  7  6  6  6  6  3  3  3  3  3
++         3  3  3  3  3  3  3  3  3  3  3  3  3  3  3  3  3
++         3  3  4  3  3  3  3  3  4 10  5  5  5  5  7  5  5
++         5  5  5  5  5  6  5  5  5  5  5  5  5  5  6  8  0
%c M  cc GPS ccc cccc cccc cccc cccc ccccc ccccc ccccc ccccc
%c cc cc ccc ccc cccc cccc cccc cccc ccccc ccccc ccccc ccccc
%f  0.0000000  0.000000000  0.00000000000  0.000000000000000
%f  0.0000000  0.000000000  0.00000000000  0.000000000000000
%i    0    0    0    0      0      0      0      0         0
%i    0    0    0    0      0      0      0      0         0
/* INFORMATION & ANALYSIS CENTER (IAC) OF MCC   (RAPID DATA)
/* S/V CLOCKS ARE ALIGNED TO GPS & GLONASS TIME RESPECTIVELY
/* USING THE BROADCAST EPHEMERIS                            
/* PCV:IGS14_2000 OL/AL:FES2004  NONE     YN ORB:CoN CLK:CoN
*  2018 07 25  2 45  0.00000000
PC01 -32254.485723  27113.789125    963.566656    382.933289
PC02   4418.077219  41932.580633   -325.467850    -54.713706
PC03 -14824.645777  39457.987275    977.584830   -176.900497
PC05  21821.128735  36064.279097   -399.927019    278.366455
PC06 -11629.608073  21690.350851 -33966.172982    118.725337
PC07 -24458.646204  31432.122602  13223.004940     53.047414
PC08  -8838.432598  36425.725458  19610.236295    453.576942
PC09   2963.308841  27301.685181 -31721.062003     79.700322
PC10 -10634.776192  32273.141222  24839.314397   -412.706935
PC11  19480.270347   7181.300368 -18634.058666   -605.898729
PC12  16843.021581  22171.645862  -2465.366677    529.784243
PC13  -1222.953835  41482.580266   8172.163533   -193.837327
PC14  27516.390278    989.798484  -4314.555185    292.128516
PE01 -16449.268615  23044.553323   8611.714760   -398.013889
PE02  16434.616686 -23055.595976  -8638.112309     20.820196
PE03   9557.363296 -14782.596760  23807.403566    -58.171644
PE04  12345.159325  18415.025974 -19600.527787    -82.207363
PE05  25932.076699  -2467.937353  14067.452562    223.017747
PE07 -27087.916847 -11272.700702   3898.517091     -8.029211
PE08 -12532.624630 -18195.610665  19703.534901   6537.302568
PE09  27210.484495  10993.706778  -3907.140602   6725.391617
PE11  16834.946750  14970.506318 -19200.687965   2854.137959
PE12   8321.204966  28308.778756  -2237.793898   4676.450927
PE14 -19934.810585  -2842.688196  14377.144334   6546.075787
PE18  19673.652557  -8045.170354 -23776.286333   6034.084196
PE19 -11447.570006  13811.127743 -23535.048890    -13.815606
PE24  18003.737094   4015.066752  23139.824697   6583.163272
PE26 -15424.621553   6525.765401  24402.994544   5671.375217
PE30  -1096.643884 -19153.399531 -22549.201411   5651.016987
PG01 -13313.193530  17657.712307  14323.239459    -69.216830
PG02  14581.112179   4809.140833 -21128.936632     48.253003
PG03 -21331.600254  13542.986383  -8102.234782    110.958264
PG05  24267.600743   -666.577052 -11130.143418     -4.123000
PG06   7512.530087  19773.242078 -16019.374592    383.718146
PG07  -5339.629668  25753.504761   -146.376080    153.269531
PG08 -19474.583389     28.060779  18172.131185   -109.321992
PG09  -1477.676559  17355.198968 -20075.440075    512.997313
PG10  -6470.653623 -13826.654275  21783.672368    188.420400
PG11 -11877.434936  13694.423122  18904.023750   -728.435419
PG12  24348.142158  -9647.439248  -3960.674891    318.725748
PG13  20961.999700   9093.507527  13441.259925    -91.983236
PG14 -18907.190059 -18787.555586    -65.567392    -97.650054
PG15  18234.270500  -4233.699979  18760.732479   -350.047701
PG16 -23799.170520  -2060.428596 -12204.225215     16.420985
PG17  13376.932250  21205.125691   9336.386720    -74.655162
PG18 -15170.509474   9229.191176  19228.282320     37.663824
PG19  18619.552269  18821.407963   -521.838926   -417.581642
PG20   3689.192257 -17770.956860  19244.397406    512.988182
PG21    667.916432 -26383.951624   3909.538815   -362.652295
PG22 -24571.856493  10049.661598    476.592681   -468.313342
PG23 -12433.218716   9627.131079 -21142.926721   -213.958289
PG24  14439.627910 -14206.889490  16908.411127    -53.028100
PG25  13974.016537 -16234.305310 -15733.315344   -621.261649
PG26 -16816.813132  -8010.283497 -18993.654892    -73.116258
PG27 -22509.160839 -10622.188615   9550.089966    358.852702
PG28   2363.150296  14817.172117  22539.744148    733.610178
PG29   3837.646219 -15758.204779 -21060.933238    408.621200
PG30   1341.960254  24622.298398   9655.764576     46.365115
PG31  -8488.898426 -17961.639801 -17383.176088    105.404898
PG32 -14628.403793 -20416.991565   8818.759648   -467.813229
PJ01 -33114.704242  20053.824612 -11946.870481   -167.354531
PR01   3156.878515  11330.959710 -22628.573155     29.550833
PR02  21462.896835   7894.509456 -11206.502260    321.330615
PR03  24713.247214   -134.003897   6276.124535    138.603045
PR04  13108.246783  -8228.050999  20292.213050    269.774473
PR05  -5861.941565 -11337.976096  22080.154197    -45.472084
PR07 -24653.105674    261.749603  -6573.257089    -43.208885
PR08 -13794.841483   7929.953773 -19881.612596     22.120867
PR09  -9475.768091  -5837.772432 -22935.816209     19.804739
PR10 -16978.635498   9929.490657 -16206.367094     28.507968
PR11 -15078.590060  20525.981944    768.338423    -35.621748
PR13   9275.808580   5629.505130  23069.859102    -12.874331
PR14  17079.905846  -9875.495694  16194.815336     29.373919
PR15  16548.838673 -19021.743971   3547.365441    -13.641328
PR16   4472.939995 -19214.709939 -16126.280758     97.709625
PR17  12348.720105   2961.065593 -22126.940165    150.593008
PR18   4358.052481 -14075.213212 -20831.875318    204.214374
PR19  -5597.138416 -23589.751997  -7932.239695    -56.985579
PR20 -12948.154064 -19074.273885  10969.231005   -346.331196
PR21 -12144.762449  -2525.806666  22278.164022      5.508596
PR22  -3190.907588  15644.459035  19845.249804    -56.846712
PR23   8136.273865  23858.716870   3889.340078    167.810376
PR24  13484.345629  18065.610784 -11955.505370   -169.290815
PR26 -13142.941377 -19415.084240  10025.564177     36.491638
EOF
